BEIDOU-3 M11 (C25)      
1 43603U 18067B   25068.03639771 -.00000026  00000+0  00000+0 0  9992
2 43603  54.1975 196.7786 0004551  29.3911 330.5917  1.86227246 44489
BEIDOU-3 M13 (C32)      
1 43622U 18072A   25067.99622523  .00000006  00000+0  00000+0 0  9997
2 43622  56.2155  78.0588 0008937 301.8590  58.0946  1.86231149 43994
BEIDOU-3 M14 (C33)      
1 43623U 18072B   25068.39866012  .00000008  00000+0  00000+0 0  9998
2 43623  56.2177  78.0389 0006451 321.5807  38.4145  1.86231144 43995
BEIDOU-3 M16 (C35)      
1 43647U 18078A   25069.09640546 -.00000068  00000+0  00000+0 0  9997
2 43647  54.5015 316.2048 0008242  22.1768 337.9087  1.86232296 43511
BEIDOU-3 M15 (C34)      
1 43648U 18078B   25069.22563593 -.00000067  00000+0  00000+0 0  9998
2 43648  54.4971 316.2023 0005182  29.2753 330.8039  1.86232178 43537
BEIDOU-3 G1 (C59)       
1 43683U 18085A   25069.78449983 -.00000295  00000+0  00000+0 0  9995
2 43683   2.8577 100.7162 0002808 353.5929 136.8116  1.00270289 23411
BEIDOU-3 M18 (C37)      
1 43707U 18093B   25069.24269429 -.00000038  00000+0  00000+0 0  9992
2 43707  54.1919 198.0277 0005889 330.8685  29.0507  1.86229808 42899
BEIDOU-3 IGSO-1 (C38)   
1 44204U 19023A   25069.82400325 -.00000200  00000+0  00000+0 0  9996
2 44204  58.0397  42.4367 0022290 228.1576 314.3979  1.00274848  2563
BEIDOU-3 IGSO-2 (C39)   
1 44337U 19035A   25064.85101839 -.00000152  00000+0  00000+0 0  9998
2 44337  55.1994 162.9742 0036515 201.4116 222.6079  1.00257794 20973
BEIDOU-3 M24 (C46)      
1 44542U 19061A   25068.77623522 -.00000033  00000+0  00000+0 0  9996
2 44542  54.4189 198.3909 0008005  13.3508 346.6236  1.86228996 37140
BEIDOU-3 M23 (C45)      
1 44543U 19061B   25069.38247610 -.00000038  00000+0  00000+0 0  9990
2 44543  54.4174 198.3389 0004647   6.6530 312.4438  1.86229225 37157
