[
    {
        "OBJECT_NAME": "BEIDOU-3 M11",
        "OBJECT_ID": "2018-067B",
        "EPOCH": "2025-03-09T00:52:24.762144",
        "MEAN_MOTION": 1.86227246,
        "ECCENTRICITY": 0.0004551,
        "INCLINATION": 54.1975,
        "RA_OF_ASC_NODE": 196.7786,
        "ARG_OF_PERICENTER": 29.3911,
        "MEAN_ANOMALY": 330.5917,
        "EPHEMERIS_TYPE": 0,
        "CLASSIFICATION_TYPE": "U",
        "NORAD_CAT_ID": 43603,
        "ELEMENT_SET_NO": 999,
        "REV_AT_EPOCH": 4448,
        "BSTAR": 0,
        "MEAN_MOTION_DOT": -2.6e-07,
        "MEAN_MOTION_DDOT": 0
    },
    {
        "OBJECT_NAME": "BEIDOU-3 M13",
        "OBJECT_ID": "2018-072A",
        "EPOCH": "2025-03-08T23:54:33.859872",
        "MEAN_MOTION": 1.86231149,
        "ECCENTRICITY": 0.0008937,
        "INCLINATION": 56.2155,
        "RA_OF_ASC_NODE": 78.0588,
        "ARG_OF_PERICENTER": 301.859,
        "MEAN_ANOMALY": 58.0946,
        "EPHEMERIS_TYPE": 0,
        "CLASSIFICATION_TYPE": "U",
        "NORAD_CAT_ID": 43622,
        "ELEMENT_SET_NO": 999,
        "REV_AT_EPOCH": 4399,
        "BSTAR": 0,
        "MEAN_MOTION_DOT": 6e-08,
        "MEAN_MOTION_DDOT": 0
    },
    {
        "OBJECT_NAME": "BEIDOU-3 M14",
        "OBJECT_ID": "2018-072B",
        "EPOCH": "2025-03-09T09:34:04.234368",
        "MEAN_MOTION": 1.86231144,
        "ECCENTRICITY": 0.0006451,
        "INCLINATION": 56.2177,
        "RA_OF_ASC_NODE": 78.0389,
        "ARG_OF_PERICENTER": 321.5807,
        "MEAN_ANOMALY": 38.4145,
        "EPHEMERIS_TYPE": 0,
        "CLASSIFICATION_TYPE": "U",
        "NORAD_CAT_ID": 43623,
        "ELEMENT_SET_NO": 999,
        "REV_AT_EPOCH": 4399,
        "BSTAR": 0,
        "MEAN_MOTION_DOT": 8e-08,
        "MEAN_MOTION_DDOT": 0
    },
    {
        "OBJECT_NAME": "BEIDOU-3 M16",
        "OBJECT_ID": "2018-078A",
        "EPOCH": "2025-03-10T02:18:49.431744",
        "MEAN_MOTION": 1.86232296,
        "ECCENTRICITY": 0.0008242,
        "INCLINATION": 54.5015,
        "RA_OF_ASC_NODE": 316.2048,
        "ARG_OF_PERICENTER": 22.1768,
        "MEAN_ANOMALY": 337.9087,
        "EPHEMERIS_TYPE": 0,
        "CLASSIFICATION_TYPE": "U",
        "NORAD_CAT_ID": 43647,
        "ELEMENT_SET_NO": 999,
        "REV_AT_EPOCH": 4351,
        "BSTAR": 0,
        "MEAN_MOTION_DOT": -6.8e-07,
        "MEAN_MOTION_DDOT": 0
    },
    {
        "OBJECT_NAME": "BEIDOU-3 M15",
        "OBJECT_ID": "2018-078B",
        "EPOCH": "2025-03-10T05:24:54.944352",
        "MEAN_MOTION": 1.86232178,
        "ECCENTRICITY": 0.0005182,
        "INCLINATION": 54.4971,
        "RA_OF_ASC_NODE": 316.2023,
        "ARG_OF_PERICENTER": 29.2753,
        "MEAN_ANOMALY": 330.8039,
        "EPHEMERIS_TYPE": 0,
        "CLASSIFICATION_TYPE": "U",
        "NORAD_CAT_ID": 43648,
        "ELEMENT_SET_NO": 999,
        "REV_AT_EPOCH": 4353,
        "BSTAR": 0,
        "MEAN_MOTION_DOT": -6.7e-07,
        "MEAN_MOTION_DDOT": 0
    },
    {
        "OBJECT_NAME": "BEIDOU-3 G1",
        "OBJECT_ID": "2018-085A",
        "EPOCH": "2025-03-10T18:49:40.785312",
        "MEAN_MOTION": 1.00270289,
        "ECCENTRICITY": 0.0002808,
        "INCLINATION": 2.8577,
        "RA_OF_ASC_NODE": 100.7162,
        "ARG_OF_PERICENTER": 353.5929,
        "MEAN_ANOMALY": 136.8116,
        "EPHEMERIS_TYPE": 0,
        "CLASSIFICATION_TYPE": "U",
        "NORAD_CAT_ID": 43683,
        "ELEMENT_SET_NO": 999,
        "REV_AT_EPOCH": 2341,
        "BSTAR": 0,
        "MEAN_MOTION_DOT": -2.95e-06,
        "MEAN_MOTION_DDOT": 0
    },
    {
        "OBJECT_NAME": "BEIDOU-3 M18",
        "OBJECT_ID": "2018-093B",
        "EPOCH": "2025-03-10T05:49:28.786656",
        "MEAN_MOTION": 1.86229808,
        "ECCENTRICITY": 0.0005889,
        "INCLINATION": 54.1919,
        "RA_OF_ASC_NODE": 198.0277,
        "ARG_OF_PERICENTER": 330.8685,
        "MEAN_ANOMALY": 29.0507,
        "EPHEMERIS_TYPE": 0,
        "CLASSIFICATION_TYPE": "U",
        "NORAD_CAT_ID": 43707,
        "ELEMENT_SET_NO": 999,
        "REV_AT_EPOCH": 4289,
        "BSTAR": 0,
        "MEAN_MOTION_DOT": -3.8e-07,
        "MEAN_MOTION_DDOT": 0
    },
    {
        "OBJECT_NAME": "BEIDOU-3 IGSO-1",
        "OBJECT_ID": "2019-023A",
        "EPOCH": "2025-03-10T19:46:33.880800",
        "MEAN_MOTION": 1.00274848,
        "ECCENTRICITY": 0.002229,
        "INCLINATION": 58.0397,
        "RA_OF_ASC_NODE": 42.4367,
        "ARG_OF_PERICENTER": 228.1576,
        "MEAN_ANOMALY": 314.3979,
        "EPHEMERIS_TYPE": 0,
        "CLASSIFICATION_TYPE": "U",
        "NORAD_CAT_ID": 44204,
        "ELEMENT_SET_NO": 999,
        "REV_AT_EPOCH": 256,
        "BSTAR": 0,
        "MEAN_MOTION_DOT": -2e-06,
        "MEAN_MOTION_DDOT": 0
    },
    {
        "OBJECT_NAME": "BEIDOU-3 IGSO-2",
        "OBJECT_ID": "2019-035A",
        "EPOCH": "2025-03-05T20:25:27.988896",
        "MEAN_MOTION": 1.00257794,
        "ECCENTRICITY": 0.0036515,
        "INCLINATION": 55.1994,
        "RA_OF_ASC_NODE": 162.9742,
        "ARG_OF_PERICENTER": 201.4116,
        "MEAN_ANOMALY": 222.6079,
        "EPHEMERIS_TYPE": 0,
        "CLASSIFICATION_TYPE": "U",
        "NORAD_CAT_ID": 44337,
        "ELEMENT_SET_NO": 999,
        "REV_AT_EPOCH": 2097,
        "BSTAR": 0,
        "MEAN_MOTION_DOT": -1.52e-06,
        "MEAN_MOTION_DDOT": 0
    },
    {
        "OBJECT_NAME": "BEIDOU-3 M24",
        "OBJECT_ID": "2019-061A",
        "EPOCH": "2025-03-09T18:37:46.723008",
        "MEAN_MOTION": 1.86228996,
        "ECCENTRICITY": 0.0008005,
        "INCLINATION": 54.4189,
        "RA_OF_ASC_NODE": 198.3909,
        "ARG_OF_PERICENTER": 13.3508,
        "MEAN_ANOMALY": 346.6236,
        "EPHEMERIS_TYPE": 0,
        "CLASSIFICATION_TYPE": "U",
        "NORAD_CAT_ID": 44542,
        "ELEMENT_SET_NO": 999,
        "REV_AT_EPOCH": 3714,
        "BSTAR": 0,
        "MEAN_MOTION_DOT": -3.3e-07,
        "MEAN_MOTION_DDOT": 0
    },
    {
        "OBJECT_NAME": "BEIDOU-3 M23",
        "OBJECT_ID": "2019-061B",
        "EPOCH": "2025-03-10T09:10:45.935040",
        "MEAN_MOTION": 1.86229225,
        "ECCENTRICITY": 0.0004647,
        "INCLINATION": 54.4174,
        "RA_OF_ASC_NODE": 198.3389,
        "ARG_OF_PERICENTER": 6.653,
        "MEAN_ANOMALY": 312.4438,
        "EPHEMERIS_TYPE": 0,
        "CLASSIFICATION_TYPE": "U",
        "NORAD_CAT_ID": 44543,
        "ELEMENT_SET_NO": 999,
        "REV_AT_EPOCH": 3715,
        "BSTAR": 0,
        "MEAN_MOTION_DOT": -3.8e-07,
        "MEAN_MOTION_DDOT": 0
    }
]